IRIDIUM 166             
1 43570U 18061B   24147.67877894  .00000406  00000+0  13774-3 0  9993
2 43570  86.3990  10.8028 0001918  89.0307 271.1108 14.34219551305688
IRIDIUM 158             
1 43571U 18061C   24147.85637552  .00000418  00000+0  14227-3 0  9996
2 43571  86.3988  10.7378 0002194  89.9142 270.2305 14.34215687305670
IRIDIUM 165             
1 43572U 18061D   24147.88174289  .00000410  00000+0  13951-3 0  9998
2 43572  86.3992  10.7593 0002152  91.0234 269.1208 14.34218935305707
IRIDIUM 155             
1 43573U 18061E   24147.91345331  .00000146  00000+0  44962-4 0  9994
2 43573  86.3985  10.6523 0001890  87.7340 272.4072 14.34218499305677
IRIDIUM 154             
1 43574U 18061F   24147.89442853  .00000417  00000+0  14177-3 0  9994
2 43574  86.3993  10.7569 0002384  84.1970 275.9497 14.34218726305725
IRIDIUM 163             
1 43575U 18061G   24147.87539865  .00000424  00000+0  14416-3 0  9997
2 43575  86.3989  10.7038 0002129  84.5065 275.6374 14.34218147305692
IRIDIUM 156             
1 43576U 18061H   24147.85002981  .00000420  00000+0  14283-3 0  9998
2 43576  86.3989  10.7207 0002106  90.1890 269.9547 14.34219046305681
IRIDIUM 164             
1 43577U 18061J   24147.90077394  .00000420  00000+0  14307-3 0  9992
2 43577  86.3991  10.7280 0002453  89.1108 271.0369 14.34217932305735
